*******************************************************************************
Ephemeris / WWW_USER Wed Mar 14 15:36:32 2018 Pasadena, USA      / Horizons    
*******************************************************************************
Target body name: 136108 Haumea (2003 EL61)       {source: JPL#87}
Center body name: Solar System Barycenter (0)     {source: DE431}
Center-site name: BODY CENTER
*******************************************************************************
Start time      : A.D. 2000-Jan-01 00:00:00.0000 TDB
Stop  time      : A.D. 2001-Jan-01 00:00:00.0000 TDB
Step-size       : 7200 minutes
*******************************************************************************
Center geodetic : 0.00000000,0.00000000,0.0000000 {E-lon(deg),Lat(deg),Alt(km)}
Center cylindric: 0.00000000,0.00000000,0.0000000 {E-lon(deg),Dxy(km),Dz(km)}
Center radii    : (undefined)                                                  
Small perturbers: Yes                             {source: SB431-N16}
Output units    : AU-D                                                         
Output type     : GEOMETRIC cartesian states
Output format   : 2 (position and velocity)
Reference frame : ICRF/J2000.0                                                 
Coordinate systm: Ecliptic and Mean Equinox of Reference Epoch                 
*******************************************************************************
Initial IAU76/J2000 heliocentric ecliptic osculating elements (au, days, deg.):
  EPOCH=  2456211.5 ! 2012-Oct-11.00 (TDB)         Residual RMS= .22485        
   EC= .1964862181056884   QR= 34.56394462436387   TP= 2500343.854969901       
   OM= 121.8524198449582   W=  240.6868081790604   IN= 28.19722402106353       
  Equivalent ICRF heliocentric equatorial cartesian coordinates (au, au/d):
   X=-4.266593492899759E+01  Y=-2.274754456372059E+01  Z= 1.581168261873085E+01
  VX= 9.353592994576606E-04 VY=-1.855008818200509E-03 VZ=-6.624115739028249E-04
Asteroid physical parameters (km, seconds, rotational period in hours):        
   GM= n.a.                RAD= n.a.               ROTPER= 3.9154              
   H= .200                 G= .150                 B-V= n.a.                   
                           ALBEDO= n.a.            STYP= n.a.                  
*******************************************************************************
JDTDB
   X     Y     Z
   VX    VY    VZ
*******************************************************************************
$$SOE
2451544.500000000 = A.D. 2000-Jan-01 00:00:00.0000 TDB 
  -4.599731133301071E+01 -5.122233125264398E+00  2.238576127848615E+01
   4.822501363955772E-04 -2.069955619083167E-03  3.679480400444735E-04
2451549.500000000 = A.D. 2000-Jan-06 00:00:00.0000 TDB 
  -4.599489882856790E+01 -5.132582763640992E+00  2.238760040845701E+01
   4.827516379176848E-04 -2.069899712582022E-03  3.677039442016698E-04
2451554.500000000 = A.D. 2000-Jan-11 00:00:00.0000 TDB 
  -4.599248381665968E+01 -5.142932122200498E+00  2.238943831788718E+01
   4.832531225516785E-04 -2.069843692248829E-03  3.674598237668048E-04
2451559.500000000 = A.D. 2000-Jan-16 00:00:00.0000 TDB 
  -4.599006629737054E+01 -5.153281200373754E+00  2.239127500665370E+01
   4.837545902843614E-04 -2.069787558079521E-03  3.672156787453565E-04
2451564.500000000 = A.D. 2000-Jan-21 00:00:00.0000 TDB 
  -4.598764627078503E+01 -5.163629997591562E+00  2.239311047463366E+01
   4.842560411025497E-04 -2.069731310070014E-03  3.669715091427867E-04
2451569.500000000 = A.D. 2000-Jan-26 00:00:00.0000 TDB 
  -4.598522373698772E+01 -5.173978513284712E+00  2.239494472170417E+01
   4.847574749930750E-04 -2.069674948216201E-03  3.667273149645406E-04
2451574.500000000 = A.D. 2000-Jan-31 00:00:00.0000 TDB 
  -4.598279869606333E+01 -5.184326746883976E+00  2.239677774774236E+01
   4.852588919427787E-04 -2.069618472513962E-03  3.664830962160503E-04
2451579.500000000 = A.D. 2000-Feb-05 00:00:00.0000 TDB 
  -4.598037114809656E+01 -5.194674697820096E+00  2.239860955262539E+01
   4.857602919385218E-04 -2.069561882959157E-03  3.662388529027267E-04
2451584.500000000 = A.D. 2000-Feb-10 00:00:00.0000 TDB 
  -4.597794109317222E+01 -5.205022365523807E+00  2.240044013623045E+01
   4.862616749671757E-04 -2.069505179547622E-03  3.659945850299670E-04
2451589.500000000 = A.D. 2000-Feb-15 00:00:00.0000 TDB 
  -4.597550853137520E+01 -5.215369749425805E+00  2.240226949843477E+01
   4.867630410156408E-04 -2.069448362275199E-03  3.657502926031421E-04
2451594.500000000 = A.D. 2000-Feb-20 00:00:00.0000 TDB 
  -4.597307346279040E+01 -5.225716848956782E+00  2.240409763911557E+01
   4.872643900708251E-04 -2.069391431137697E-03  3.655059756276099E-04
2451599.500000000 = A.D. 2000-Feb-25 00:00:00.0000 TDB 
  -4.597063588750283E+01 -5.236063663547402E+00  2.240592455815014E+01
   4.877657221196591E-04 -2.069334386130920E-03  3.652616341087064E-04
2451604.500000000 = A.D. 2000-Mar-01 00:00:00.0000 TDB 
  -4.596819580559757E+01 -5.246410192628306E+00  2.240775025541576E+01
   4.882670371492579E-04 -2.069277227250554E-03  3.650172680516010E-04
2451609.500000000 = A.D. 2000-Mar-06 00:00:00.0000 TDB 
  -4.596575321715972E+01 -5.256756435630113E+00  2.240957473078976E+01
   4.887683351462300E-04 -2.069219954492600E-03  3.647728774619081E-04
2451614.500000000 = A.D. 2000-Mar-11 00:00:00.0000 TDB 
  -4.596330812227452E+01 -5.267102391983429E+00  2.241139798414951E+01
   4.892696160976931E-04 -2.069162567852734E-03  3.645284623447882E-04
2451619.500000000 = A.D. 2000-Mar-16 00:00:00.0000 TDB 
  -4.596086052102719E+01 -5.277448061118831E+00  2.241322001537235E+01
   4.897708799906188E-04 -2.069105067326726E-03  3.642840227055274E-04
2451624.500000000 = A.D. 2000-Mar-21 00:00:00.0000 TDB 
  -4.595841041350305E+01 -5.287793442466878E+00  2.241504082433570E+01
   4.902721268119909E-04 -2.069047452910332E-03  3.640395585493980E-04
2451629.500000000 = A.D. 2000-Mar-26 00:00:00.0000 TDB 
  -4.595595779978754E+01 -5.298138535458108E+00  2.241686041091699E+01
   4.907733565489439E-04 -2.068989724599411E-03  3.637950698815524E-04
2451634.500000000 = A.D. 2000-Mar-31 00:00:00.0000 TDB 
  -4.595350267996608E+01 -5.308483339523040E+00  2.241867877499367E+01
   4.912745691881742E-04 -2.068931882389450E-03  3.635505567074720E-04
2451639.500000000 = A.D. 2000-Apr-05 00:00:00.0000 TDB 
  -4.595104505412418E+01 -5.318827854092162E+00  2.242049591644322E+01
   4.917757647168032E-04 -2.068873926276256E-03  3.633060190323106E-04
2451644.500000000 = A.D. 2000-Apr-10 00:00:00.0000 TDB 
  -4.594858492234744E+01 -5.329172078595953E+00  2.242231183514317E+01
   4.922769431218306E-04 -2.068815856255520E-03  3.630614568613084E-04
2451649.500000000 = A.D. 2000-Apr-15 00:00:00.0000 TDB 
  -4.594612228472153E+01 -5.339516012464864E+00  2.242412653097102E+01
   4.927781043902630E-04 -2.068757672322916E-03  3.628168701996960E-04
2451654.500000000 = A.D. 2000-Apr-20 00:00:00.0000 TDB 
  -4.594365714133213E+01 -5.349859655129323E+00  2.242594000380436E+01
   4.932792485091147E-04 -2.068699374474106E-03  3.625722590526934E-04
2451659.500000000 = A.D. 2000-Apr-25 00:00:00.0000 TDB 
  -4.594118949226503E+01 -5.360203006019739E+00  2.242775225352074E+01
   4.937803754653209E-04 -2.068640962704899E-03  3.623276234256129E-04
2451664.500000000 = A.D. 2000-Apr-30 00:00:00.0000 TDB 
  -4.593871933760610E+01 -5.370546064566495E+00  2.242956327999781E+01
   4.942814852461294E-04 -2.068582437010514E-03  3.620829633233942E-04
2451669.500000000 = A.D. 2000-May-05 00:00:00.0000 TDB 
  -4.593624667744123E+01 -5.380888830199964E+00  2.243137308311320E+01
   4.947825778385072E-04 -2.068523797386698E-03  3.618382787513076E-04
2451674.500000000 = A.D. 2000-May-10 00:00:00.0000 TDB 
  -4.593377151185638E+01 -5.391231302350471E+00  2.243318166274455E+01
   4.952836532295215E-04 -2.068465043829009E-03  3.615935697145034E-04
2451679.500000000 = A.D. 2000-May-15 00:00:00.0000 TDB 
  -4.593129384093762E+01 -5.401573480448354E+00  2.243498901876958E+01
   4.957847114062496E-04 -2.068406176332984E-03  3.613488362181182E-04
2451684.500000000 = A.D. 2000-May-20 00:00:00.0000 TDB 
  -4.592881366477103E+01 -5.411915363923899E+00  2.243679515106598E+01
   4.962857523557795E-04 -2.068347194894139E-03  3.611040782672736E-04
2451689.500000000 = A.D. 2000-May-25 00:00:00.0000 TDB 
  -4.592633098344279E+01 -5.422256952207382E+00  2.243860005951149E+01
   4.967867760649564E-04 -2.068288099507948E-03  3.608592958673006E-04
2451694.500000000 = A.D. 2000-May-30 00:00:00.0000 TDB 
  -4.592384579703914E+01 -5.432598244729057E+00  2.244040374398390E+01
   4.972877825216518E-04 -2.068228890169957E-03  3.606144890226203E-04
2451699.500000000 = A.D. 2000-Jun-04 00:00:00.0000 TDB 
  -4.592135810564635E+01 -5.442939240919157E+00  2.244220620436099E+01
   4.977887717127491E-04 -2.068169566875600E-03  3.603696577385203E-04
2451704.500000000 = A.D. 2000-Jun-09 00:00:00.0000 TDB 
  -4.591886790935080E+01 -5.453279940207878E+00  2.244400744052056E+01
   4.982897436254715E-04 -2.068110129620322E-03  3.601248020199837E-04
2451709.500000000 = A.D. 2000-Jun-14 00:00:00.0000 TDB 
  -4.591637520823891E+01 -5.463620342025415E+00  2.244580745234047E+01
   4.987906982470647E-04 -2.068050578399545E-03  3.598799218719684E-04
2451714.500000000 = A.D. 2000-Jun-19 00:00:00.0000 TDB 
  -4.591388000239716E+01 -5.473960445801927E+00  2.244760623969858E+01
   4.992916355647368E-04 -2.067990913208360E-03  3.596350172994335E-04
2451719.500000000 = A.D. 2000-Jun-24 00:00:00.0000 TDB 
  -4.591138229191213E+01 -5.484300250967543E+00  2.244940380247277E+01
   4.997925555659206E-04 -2.067931134042913E-03  3.593900883072279E-04
2451724.500000000 = A.D. 2000-Jun-29 00:00:00.0000 TDB 
  -4.590888207687039E+01 -5.494639756952391E+00  2.245120014054095E+01
   5.002934582378871E-04 -2.067871240898353E-03  3.591451349002544E-04
